LANDSAT 8               
1 39084U 13008A   21062.14544166  .00000060  00000-0  23353-4 0  9994
2 39084  98.1950 134.2279 0001385 101.7232 258.4122 14.57120908428363
